IRIDIUM 136             
1 42962U 17061H   23258.26129215  .00000158  00000+0  49242-4 0  9994
2 42962  86.3911  85.6523 0002300  92.1137 268.0322 14.34219023310657
